{
    "links": {
        "self": "http://www.neowsapp.com/rest/v1/neo/3838004?api_key=iIulBulltgU6a56xZRHN4H3l9WmuAYTsLGpBGhQ2"
    },
    "id": "3838004",
    "neo_reference_id": "3838004",
    "name": "(2019 AV14)",
    "designation": "2019 AV14",
    "nasa_jpl_url": "http://ssd.jpl.nasa.gov/sbdb.cgi?sstr=3838004",
    "absolute_magnitude_h": 24.412,
    "estimated_diameter": {
        "kilometers": {
            "estimated_diameter_min": 0.034846164,
            "estimated_diameter_max": 0.0779183915
        },
        "meters": {
            "estimated_diameter_min": 34.8461640282,
            "estimated_diameter_max": 77.9183915221
        },
        "miles": {
            "estimated_diameter_min": 0.0216523958,
            "estimated_diameter_max": 0.0484162289
        },
        "feet": {
            "estimated_diameter_min": 114.3246887903,
            "estimated_diameter_max": 255.6377756415
        }
    },
    "is_potentially_hazardous_asteroid": false,
    "close_approach_data": [
        {
            "close_approach_date": "2019-01-07",
            "close_approach_date_full": "2019-Jan-07 13:57",
            "epoch_date_close_approach": 1546869420000,
            "relative_velocity": {
                "kilometers_per_second": "24.2859381296",
                "kilometers_per_hour": "87429.3772664066",
                "miles_per_hour": "54325.2150020069"
            },
            "miss_distance": {
                "astronomical": "0.0833063969",
                "lunar": "32.4061883941",
                "kilometers": "12462459.533614603",
                "miles": "7743813.2687954014"
            },
            "orbiting_body": "Earth"
        }
    ],
    "orbital_data": {
        "orbit_id": "1",
        "orbit_determination_date": "2019-01-29 07:39:53",
        "first_observation_date": "2019-01-11",
        "last_observation_date": "2019-01-12",
        "data_arc_in_days": 1,
        "observations_used": 6,
        "orbit_uncertainty": "9",
        "minimum_orbit_intersection": ".0791992",
        "jupiter_tisserand_invariant": "5.063",
        "epoch_osculation": "2458495.5",
        "eccentricity": ".6605692690837179",
        "semi_major_axis": "1.17422939134505",
        "inclination": "27.64308536853968",
        "ascending_node_longitude": "295.3162273048661",
        "orbital_period": "464.7590410419439",
        "perihelion_distance": ".3985695405676312",
        "perihelion_argument": "49.20547197974383",
        "aphelion_distance": "1.949889242122468",
        "perihelion_time": "2458436.934365965911",
        "mean_anomaly": "45.36464359037454",
        "mean_motion": ".7745949367502685",
        "equinox": "J2000",
        "orbit_class": {
            "orbit_class_type": "APO",
            "orbit_class_description": "Near-Earth asteroid orbits which cross the Earth’s orbit similar to that of 1862 Apollo",
            "orbit_class_range": "a (semi-major axis) > 1.0 AU; q (perihelion) < 1.017 AU"
        }
    },
    "is_sentry_object": false
}